{"fetched_at":"2026-07-05T16:24:36.616Z","source":"https://celestrak.org/NORAD/elements/gp.php?NAME=RADARSAT&FORMAT=JSON","constellation":"radarsat-2","records":[{"OBJECT_NAME":"RADARSAT-2","OBJECT_ID":"2007-061A","EPOCH":"2026-07-05T07:12:18.124128","CLASSIFICATION_TYPE":"U","MEAN_MOTION":14.29981602,"ECCENTRICITY":0.00013071,"INCLINATION":98.5777,"RA_OF_ASC_NODE":192.9741,"ARG_OF_PERICENTER":85.0939,"MEAN_ANOMALY":275.0393,"EPHEMERIS_TYPE":0,"NORAD_CAT_ID":32382,"ELEMENT_SET_NO":999,"REV_AT_EPOCH":96854,"BSTAR":0.00005792096,"MEAN_MOTION_DOT":0.00000106,"MEAN_MOTION_DDOT":0}]}
